METOP-C                 
1 43689U 18087A   21323.12018644  .00000021  00000-0  29785-4 0  9999
2 43689  98.7161  21.1551 0001874 294.3555  65.7426 14.21487139157421
